{
  "type": "FeatureCollection",
  "features": [
    {
      "type": "Feature",
      "properties": {
        "norad_id": 66683,
        "name": "TRANSPORTER-15T",
        "group": "last-30-days",
        "lat": 35.306338753055854,
        "lon": -103.00298373097192,
        "alt_km": 512.11438193297,
        "timestamp": "2025-12-26T03:50:10.806456+00:00",
        "meta_object_name": "TRANSPORTER-15T",
        "meta_object_id": "2025-276T",
        "meta_epoch": "2025-12-25T17:42:14.751072",
        "meta_mean_motion": 15.17066434,
        "meta_eccentricity": 0.000486,
        "meta_inclination": 97.4444,
        "meta_ra_of_asc_node": 71.269,
        "meta_arg_of_pericenter": 231.0703,
        "meta_mean_anomaly": 129.0097,
        "meta_ephemeris_type": 0,
        "meta_classification_type": "U",
        "meta_norad_cat_id": 66683,
        "meta_element_set_no": 999,
        "meta_rev_at_epoch": 409,
        "meta_bstar": 0.00042324,
        "meta_mean_motion_dot": 8.318e-05,
        "meta_mean_motion_ddot": 0,
        "tle_line1": "1 66683U 25276T   25359.73767073  .00008318  00000+0  42324-3 0  9992",
        "tle_line2": "2 66683  97.4444  71.2690 0004860 231.0703 129.0097 15.17066434  4090"
      },
      "geometry": {
        "type": "Point",
        "coordinates": [
          -103.00298373097192,
          35.306338753055854
        ]
      }
    },
    {
      "type": "Feature",
      "properties": {
        "norad_id": 66684,
        "name": "TRANSPORTER-15U",
        "group": "last-30-days",
        "lat": 14.63212841351706,
        "lon": -106.34203939777208,
        "alt_km": 513.1401925260361,
        "timestamp": "2025-12-26T03:50:10.806468+00:00",
        "meta_object_name": "TRANSPORTER-15U",
        "meta_object_id": "2025-276U",
        "meta_epoch": "2025-12-25T19:11:50.025120",
        "meta_mean_motion": 15.17389206,
        "meta_eccentricity": 0.0004624,
        "meta_inclination": 97.4469,
        "meta_ra_of_asc_node": 71.3471,
        "meta_arg_of_pericenter": 227.0471,
        "meta_mean_anomaly": 133.0375,
        "meta_ephemeris_type": 0,
        "meta_classification_type": "U",
        "meta_norad_cat_id": 66684,
        "meta_element_set_no": 999,
        "meta_rev_at_epoch": 410,
        "meta_bstar": 0.00056373,
        "meta_mean_motion_dot": 0.00011208,
        "meta_mean_motion_ddot": 0,
        "tle_line1": "1 66684U 25276U   25359.79988455  .00011208  00000+0  56373-3 0  9999",
        "tle_line2": "2 66684  97.4469  71.3471 0004624 227.0471 133.0375 15.17389206  4102"
      },
      "geometry": {
        "type": "Point",
        "coordinates": [
          -106.34203939777208,
          14.63212841351706
        ]
      }
    },
    {
      "type": "Feature",
      "properties": {
        "norad_id": 66685,
        "name": "TRANSPORTER-15V",
        "group": "last-30-days",
        "lat": 5.194622529787603,
        "lon": -107.63342927506241,
        "alt_km": 514.1696032688606,
        "timestamp": "2025-12-26T03:50:10.806478+00:00",
        "meta_object_name": "TRANSPORTER-15V",
        "meta_object_id": "2025-276V",
        "meta_epoch": "2025-12-25T20:44:23.885376",
        "meta_mean_motion": 15.17774951,
        "meta_eccentricity": 0.0004496,
        "meta_inclination": 97.4413,
        "meta_ra_of_asc_node": 71.3951,
        "meta_arg_of_pericenter": 255.7313,
        "meta_mean_anomaly": 104.3422,
        "meta_ephemeris_type": 0,
        "meta_classification_type": "U",
        "meta_norad_cat_id": 66685,
        "meta_element_set_no": 999,
        "meta_rev_at_epoch": 411,
        "meta_bstar": 0.0067932,
        "meta_mean_motion_dot": 0.00139729,
        "meta_mean_motion_ddot": 0,
        "tle_line1": "1 66685U 25276V   25359.86416534  .00139729  00000+0  67932-2 0  9993",
        "tle_line2": "2 66685  97.4413  71.3951 0004496 255.7313 104.3422 15.17774951  4115"
      },
      "geometry": {
        "type": "Point",
        "coordinates": [
          -107.63342927506241,
          5.194622529787603
        ]
      }
    },
    {
      "type": "Feature",
      "properties": {
        "norad_id": 66686,
        "name": "TRANSPORTER-15W",
        "group": "last-30-days",
        "lat": 15.901600197883852,
        "lon": -106.18856381497422,
        "alt_km": 508.713839916446,
        "timestamp": "2025-12-26T03:50:10.806490+00:00",
        "meta_object_name": "TRANSPORTER-15W",
        "meta_object_id": "2025-276W",
        "meta_epoch": "2025-12-24T16:18:47.855520",
        "meta_mean_motion": 15.18035485,
        "meta_eccentricity": 0.00181838,
        "meta_inclination": 97.4405,
        "meta_ra_of_asc_node": 70.2223,
        "meta_arg_of_pericenter": 243.6801,
        "meta_mean_anomaly": 116.2566,
        "meta_ephemeris_type": 0,
        "meta_classification_type": "U",
        "meta_norad_cat_id": 66686,
        "meta_element_set_no": 999,
        "meta_rev_at_epoch": 393,
        "meta_bstar": 0.0029615296,
        "meta_mean_motion_dot": 0.00060911,
        "meta_mean_motion_ddot": 0,
        "tle_line1": "1 66686U 25276W   25358.67972055  .00060911  00000+0  29615-2 0  9999",
        "tle_line2": "2 66686  97.4405  70.2223 0018183 243.6801 116.2566 15.18035485  3936"
      },
      "geometry": {
        "type": "Point",
        "coordinates": [
          -106.18856381497422,
          15.901600197883852
        ]
      }
    },
    {
      "type": "Feature",
      "properties": {
        "norad_id": 66687,
        "name": "TRANSPORTER-15X",
        "group": "last-30-days",
        "lat": 62.95641046664001,
        "lon": -93.5222198734928,
        "alt_km": 507.77812041262405,
        "timestamp": "2025-12-26T03:50:10.806503+00:00",
        "meta_object_name": "TRANSPORTER-15X",
        "meta_object_id": "2025-276X",
        "meta_epoch": "2025-12-25T19:24:38.719008",
        "meta_mean_motion": 15.16779697,
        "meta_eccentricity": 0.0008091,
        "meta_inclination": 97.4384,
        "meta_ra_of_asc_node": 71.3045,
        "meta_arg_of_pericenter": 44.589,
        "meta_mean_anomaly": 315.5993,
        "meta_ephemeris_type": 0,
        "meta_classification_type": "U",
        "meta_norad_cat_id": 66687,
        "meta_element_set_no": 999,
        "meta_rev_at_epoch": 410,
        "meta_bstar": 0.00067477,
        "meta_mean_motion_dot": 0.00013208,
        "meta_mean_motion_ddot": 0,
        "tle_line1": "1 66687U 25276X   25359.80878147  .00013208  00000+0  67477-3 0  9999",
        "tle_line2": "2 66687  97.4384  71.3045 0008091  44.5890 315.5993 15.16779697  4106"
      },
      "geometry": {
        "type": "Point",
        "coordinates": [
          -93.5222198734928,
          62.95641046664001
        ]
      }
    },
    {
      "type": "Feature",
      "properties": {
        "norad_id": 66688,
        "name": "TRANSPORTER-15Y",
        "group": "last-30-days",
        "lat": 25.318033423304016,
        "lon": -104.77213114703626,
        "alt_km": 513.265500519733,
        "timestamp": "2025-12-26T03:50:10.806513+00:00",
        "meta_object_name": "TRANSPORTER-15Y",
        "meta_object_id": "2025-276Y",
        "meta_epoch": "2025-12-25T12:54:40.837824",
        "meta_mean_motion": 15.17117879,
        "meta_eccentricity": 0.0003764,
        "meta_inclination": 97.4426,
        "meta_ra_of_asc_node": 71.0715,
        "meta_arg_of_pericenter": 234.2435,
        "meta_mean_anomaly": 125.8449,
        "meta_ephemeris_type": 0,
        "meta_classification_type": "U",
        "meta_norad_cat_id": 66688,
        "meta_element_set_no": 999,
        "meta_rev_at_epoch": 406,
        "meta_bstar": 0.00056854,
        "meta_mean_motion_dot": 0.00011216,
        "meta_mean_motion_ddot": 0,
        "tle_line1": "1 66688U 25276Y   25359.53797266  .00011216  00000+0  56854-3 0  9996",
        "tle_line2": "2 66688  97.4426  71.0715 0003764 234.2435 125.8449 15.17117879  4062"
      },
      "geometry": {
        "type": "Point",
        "coordinates": [
          -104.77213114703626,
          25.318033423304016
        ]
      }
    },
    {
      "type": "Feature",
      "properties": {
        "norad_id": 66689,
        "name": "TRANSPORTER-15Z",
        "group": "last-30-days",
        "lat": -14.091415796137822,
        "lon": 73.6349046162474,
        "alt_km": 451.9684264299258,
        "timestamp": "2025-12-26T03:50:10.806523+00:00",
        "meta_object_name": "TRANSPORTER-15Z",
        "meta_object_id": "2025-276Z",
        "meta_epoch": "2025-12-22T21:27:46.425312",
        "meta_mean_motion": 15.23073772,
        "meta_eccentricity": 0.00272271,
        "meta_inclination": 97.4409,
        "meta_ra_of_asc_node": 68.4858,
        "meta_arg_of_pericenter": 260.8557,
        "meta_mean_anomaly": 98.9599,
        "meta_ephemeris_type": 0,
        "meta_classification_type": "U",
        "meta_norad_cat_id": 66689,
        "meta_element_set_no": 999,
        "meta_rev_at_epoch": 366,
        "meta_bstar": 0.086131248,
        "meta_mean_motion_dot": 0.02294864,
        "meta_mean_motion_ddot": 0,
        "tle_line1": "1 66689U 25276Z   25356.89428733  .02294864  00000+0  86131-1 0  9996",
        "tle_line2": "2 66689  97.4409  68.4858 0027227 260.8557  98.9599 15.23073772  3663"
      },
      "geometry": {
        "type": "Point",
        "coordinates": [
          73.6349046162474,
          -14.091415796137822
        ]
      }
    }
  ]
}